ONEWEB-0012             
1 44057U 19010A   26164.22533875  .00000091  00000+0  20334-3 0  9999
2 44057  87.9096 229.5722 0002044  86.1419 273.9945 13.16594400351044
ONEWEB-0010             
1 44058U 19010B   26164.25066983  .00000091  00000+0  20471-3 0  9996
2 44058  87.9101 229.5627 0001803 106.1272 254.0057 13.16594457351099
ONEWEB-0008             
1 44059U 19010C   26164.20000375 -.00000018  00000+0 -79827-4 0  9996
2 44059  87.9098 229.5680 0002324  99.2568 260.8826 13.16596146351202
ONEWEB-0007             
1 44060U 19010D   26164.30800679 -.00000029  00000+0 -11074-3 0  9995
2 44060  87.9000 259.9941 0001677  97.5642 262.5679 13.15548671350863
ONEWEB-0006             
1 44061U 19010E   26164.31195747  .00000041  00000+0  75344-4 0  9993
2 44061  87.9010 259.9571 0001852 103.1600 256.9737 13.15549016350919
ONEWEB-0011             
1 44062U 19010F   26164.28026251 -.00000053  00000+0 -17416-3 0  9993
2 44062  87.9013 259.9727 0002040 105.9026 254.2330 13.15547204350904
ONEWEB-0013             
1 45131U 20008A   26164.19668329 -.00000208  00000+0 -64194-3 0  9995
2 45131  87.8529  53.6305 0002422  57.3929 302.7431 13.09461276305548
ONEWEB-0017             
1 45132U 20008B   26164.18185276  .00000593  00000+0  16613-2 0  9997
2 45132  87.8836  37.0664 0001649  88.5498 271.5819 13.10370837307427
ONEWEB-0020             
1 45133U 20008C   26162.09052118 -.00025249  00000+0 -72765-1 0  9990
2 45133  87.8849  37.4818 0002539  39.3679 320.7632 13.10181111307549
ONEWEB-0021             
1 45134U 20008D   26164.09055542  .00000650  00000+0  18256-2 0  9990
2 45134  87.8836  37.0995 0001762  80.4828 279.6499 13.10374955308115
ONEWEB-0023             
1 45136U 20008F   26164.17770681  .00000742  00000+0  20891-2 0  9999
2 45136  87.8839  37.0636 0001921  79.1211 281.0132 13.10372482307551
ONEWEB-0024             
1 45137U 20008G   26164.07408267 -.00000101  00000+0 -32474-3 0  9999
2 45137  87.8849  37.0770 0001775  82.7161 277.4169 13.10375541307708
ONEWEB-0025             
1 45138U 20008H   26163.92109294 -.00000212  00000+0 -64229-3 0  9997
2 45138  87.8852  37.0969 0002191  92.4236 267.7142 13.10375291308017
ONEWEB-0026             
1 45139U 20008J   26164.11482331  .00000160  00000+0  41699-3 0  9992
2 45139  87.8889  21.8792 0001778  89.6653 270.4679 13.11420463310577
ONEWEB-0028             
1 45140U 20008K   26164.16652410 -.00001014  00000+0 -28982-2 0  9996
2 45140  87.8888  21.8771 0002012  68.4172 291.7171 13.11419477308098
ONEWEB-0032             
1 45141U 20008L   26164.18365078  .00000559  00000+0  15649-2 0  9997
2 45141  87.8835  37.0677 0002090  70.9959 289.1395 13.10370474307777
ONEWEB-0033             
1 45142U 20008M   26164.08225051  .00000285  00000+0  78069-3 0  9995
2 45142  87.8835  37.0955 0001546  96.8387 263.2916 13.10376092307677
ONEWEB-0035             
1 45143U 20008N   26164.17868043  .00000754  00000+0  21232-2 0  9990
2 45143  87.8831  37.0689 0001742  84.4255 275.7071 13.10372733307413
ONEWEB-0036             
1 45144U 20008P   26164.07621171  .00000022  00000+0  27613-4 0  9998
2 45144  87.8855  37.1003 0001997  77.7272 282.4079 13.09985046307820
ONEWEB-0038             
1 45145U 20008Q   26164.12514783  .00000520  00000+0  14316-2 0  9992
2 45145  87.8905  21.8851 0000733  14.7003 345.4147 13.11418496309795
ONEWEB-0039             
1 45146U 20008R   26164.08557615  .00000137  00000+0  35756-3 0  9995
2 45146  87.8829  37.0850 0001944  67.2427 292.8905 13.10372830307624
ONEWEB-0040             
1 45147U 20008S   26163.92621447  .00000109  00000+0  27735-3 0  9990
2 45147  87.8838  37.1278 0001715  78.5149 281.6171 13.10375927307308
ONEWEB-0043             
1 45149U 20008U   26164.08059216  .00000207  00000+0  55590-3 0  9998
2 45149  87.8843  37.0843 0002117  67.9269 292.2083 13.10376563307649
ONEWEB-0044             
1 45150U 20008V   26164.18517215  .00000491  00000+0  13709-2 0  9999
2 45150  87.8841  37.0636 0001810  76.0887 284.0442 13.10370239307951
ONEWEB-0045             
1 45151U 20008W   26164.11992211  .00000343  00000+0  93212-3 0  9990
2 45151  87.8899  21.8689 0001791  80.2797 279.8534 13.11419130309871
ONEWEB-0047             
1 45152U 20008X   26164.17839964  .00000707  00000+0  19897-2 0  9992
2 45152  87.8841  37.0646 0001591  82.9626 277.1683 13.10372662307678
ONEWEB-0048             
1 45153U 20008Y   26164.17355585  .00000745  00000+0  20982-2 0  9994
2 45153  87.8834  37.0870 0001752  81.8566 278.2760 13.10373379307281
ONEWEB-0049             
1 45154U 20008Z   26164.17674335  .00000716  00000+0  20157-2 0  9994
2 45154  87.8835  37.0759 0002235  82.8632 277.2750 13.10372524307505
ONEWEB-0051             
1 45155U 20008AA  26164.11823462  .00000284  00000+0  76558-3 0  9993
2 45155  87.8891  21.8773 0001829  84.1118 276.0218 13.11419196310550
ONEWEB-0052             
1 45156U 20008AB  26164.19692101 -.00000076  00000+0 -25349-3 0  9999
2 45156  87.8835  37.0575 0002245  82.0102 278.1280 13.10370031307417
